ORBCOMM FM20 [+]        
1 25416U 98046D   23344.25525803  .00000755  00000+0  31390-3 0  9996
2 25416  44.9956 283.6845 0002067 316.5459  43.5225 14.34680848324546
ORBCOMM FM16 [-]        
1 25417U 98046E   23344.37598571  .00000959  00000+0  37924-3 0  9997
2 25417  44.9953 279.9022 0004777   9.9799 350.1143 14.35458580324665
ORBCOMM FM15 [-]        
1 25418U 98046F   23344.23546595  .00000996  00000+0  39396-3 0  9998
2 25418  44.9981 284.2839 0004265   8.1884 351.9032 14.35212542324606
ORBCOMM FM14 [-]        
1 25419U 98046G   23343.26075519  .00000990  00000+0  39105-3 0  9996
2 25419  44.9972 288.1757 0003590 347.0387 166.5825 14.35330233324240
ORBCOMM FM13 [+]        
1 25420U 98046H   23344.18215170  .00000902  00000+0  36471-3 0  9995
2 25420  44.9990 287.9234 0005665 358.1072   1.9753 14.34743461324587
ORBCOMM FM21 [-]        
1 25475U 98053A   23344.47796732  .00000672  00000+0  28433-3 0  9996
2 25475  45.0105  10.6768 0002357 275.5051  84.5527 14.34742801317848
ORBCOMM FM22 [-]        
1 25476U 98053B   23343.94769850  .00000871  00000+0  35136-3 0  9998
2 25476  45.0103  11.0102 0003948 292.0854  67.9574 14.35145928317784
ORBCOMM FM23 [-]        
1 25477U 98053C   23344.09056734  .00000757  00000+0  31411-3 0  9991
2 25477  45.0108  14.9534 0003327 285.5781  74.4698 14.34735105317914
